ORBCOMM FM20            
1 25416U 98046D   25273.63086995  .00002751  00000+0  95844-3 0  9997
2 25416  44.9943  41.8438 0001632 165.9498 194.1395 14.37425169419430
ORBCOMM FM16            
1 25417U 98046E   25273.63853734  .00003940  00000+0  13043-2 0  9992
2 25417  44.9939  31.9690 0004671 132.2131 227.9114 14.39208195419448
ORBCOMM FM15            
1 25418U 98046F   25273.64098316  .00003723  00000+0  12441-2 0  9991
2 25418  44.9971  37.4199 0004418 132.4814 227.6408 14.38842484419435
ORBCOMM FM14            
1 25419U 98046G   25273.63168480  .00003764  00000+0  12478-2 0  9996
2 25419  44.9959  35.3917 0003192 136.5734 223.5366 14.39227808419404
ORBCOMM FM13            
1 25420U 98046H   25273.63047491  .00003093  00000+0  10609-2 0  9995
2 25420  44.9975  44.4167 0004814 105.0482 255.0899 14.37922125418418
ORBCOMM FM21            
1 25475U 98053A   25273.66160754  .00002243  00000+0  78807-3 0  9995
2 25475  45.0066 129.9338 0002095  37.3686 322.7307 14.37559236412422
ORBCOMM FM22            
1 25476U 98053B   25273.62051902  .00002877  00000+0  97556-3 0  9991
2 25476  45.0058 124.1118 0003743  39.9808 320.1316 14.38660664412456
ORBCOMM FM23            
1 25477U 98053C   25273.64818822  .00002578  00000+0  89490-3 0  9992
2 25477  45.0066 131.9644 0003080  32.0428 328.0608 14.37768320412573
