<?xml version="1.0" encoding="UTF-8"?>
<ndm xmlns:xsi="http://www.w3.org/2001/XMLSchema-instance" xsi:noNamespaceSchemaLocation="https://sanaregistry.org/r/ndmxml_unqualified/ndmxml-2.0.0-master-2.0.xsd">
<omm id="CCSDS_OMM_VERS" version="2.0">
<header><CREATION_DATE/><ORIGINATOR/></header><body><segment><metadata><OBJECT_NAME>ORBCOMM FM20</OBJECT_NAME><OBJECT_ID>1998-046D</OBJECT_ID><CENTER_NAME>EARTH</CENTER_NAME><REF_FRAME>TEME</REF_FRAME><TIME_SYSTEM>UTC</TIME_SYSTEM><MEAN_ELEMENT_THEORY>SGP4</MEAN_ELEMENT_THEORY></metadata><data><meanElements><EPOCH>2025-09-30T15:08:27.163680</EPOCH><MEAN_MOTION>14.37425169</MEAN_MOTION><ECCENTRICITY>.00016325</ECCENTRICITY><INCLINATION>44.9943</INCLINATION><RA_OF_ASC_NODE>41.8438</RA_OF_ASC_NODE><ARG_OF_PERICENTER>165.9498</ARG_OF_PERICENTER><MEAN_ANOMALY>194.1395</MEAN_ANOMALY></meanElements><tleParameters><EPHEMERIS_TYPE>0</EPHEMERIS_TYPE><CLASSIFICATION_TYPE>U</CLASSIFICATION_TYPE><NORAD_CAT_ID>25416</NORAD_CAT_ID><ELEMENT_SET_NO>999</ELEMENT_SET_NO><REV_AT_EPOCH>41943</REV_AT_EPOCH><BSTAR>.95844202E-3</BSTAR><MEAN_MOTION_DOT>.2751E-4</MEAN_MOTION_DOT><MEAN_MOTION_DDOT>0</MEAN_MOTION_DDOT></tleParameters></data></segment></body></omm>
<omm id="CCSDS_OMM_VERS" version="2.0">
<header><CREATION_DATE/><ORIGINATOR/></header><body><segment><metadata><OBJECT_NAME>ORBCOMM FM16</OBJECT_NAME><OBJECT_ID>1998-046E</OBJECT_ID><CENTER_NAME>EARTH</CENTER_NAME><REF_FRAME>TEME</REF_FRAME><TIME_SYSTEM>UTC</TIME_SYSTEM><MEAN_ELEMENT_THEORY>SGP4</MEAN_ELEMENT_THEORY></metadata><data><meanElements><EPOCH>2025-09-30T15:19:29.626176</EPOCH><MEAN_MOTION>14.39208195</MEAN_MOTION><ECCENTRICITY>.00046715</ECCENTRICITY><INCLINATION>44.9939</INCLINATION><RA_OF_ASC_NODE>31.9690</RA_OF_ASC_NODE><ARG_OF_PERICENTER>132.2131</ARG_OF_PERICENTER><MEAN_ANOMALY>227.9114</MEAN_ANOMALY></meanElements><tleParameters><EPHEMERIS_TYPE>0</EPHEMERIS_TYPE><CLASSIFICATION_TYPE>U</CLASSIFICATION_TYPE><NORAD_CAT_ID>25417</NORAD_CAT_ID><ELEMENT_SET_NO>999</ELEMENT_SET_NO><REV_AT_EPOCH>41944</REV_AT_EPOCH><BSTAR>.13043372E-2</BSTAR><MEAN_MOTION_DOT>.394E-4</MEAN_MOTION_DOT><MEAN_MOTION_DDOT>0</MEAN_MOTION_DDOT></tleParameters></data></segment></body></omm>
<omm id="CCSDS_OMM_VERS" version="2.0">
<header><CREATION_DATE/><ORIGINATOR/></header><body><segment><metadata><OBJECT_NAME>ORBCOMM FM15</OBJECT_NAME><OBJECT_ID>1998-046F</OBJECT_ID><CENTER_NAME>EARTH</CENTER_NAME><REF_FRAME>TEME</REF_FRAME><TIME_SYSTEM>UTC</TIME_SYSTEM><MEAN_ELEMENT_THEORY>SGP4</MEAN_ELEMENT_THEORY></metadata><data><meanElements><EPOCH>2025-09-30T15:23:00.945024</EPOCH><MEAN_MOTION>14.38842484</MEAN_MOTION><ECCENTRICITY>.00044185</ECCENTRICITY><INCLINATION>44.9971</INCLINATION><RA_OF_ASC_NODE>37.4199</RA_OF_ASC_NODE><ARG_OF_PERICENTER>132.4814</ARG_OF_PERICENTER><MEAN_ANOMALY>227.6408</MEAN_ANOMALY></meanElements><tleParameters><EPHEMERIS_TYPE>0</EPHEMERIS_TYPE><CLASSIFICATION_TYPE>U</CLASSIFICATION_TYPE><NORAD_CAT_ID>25418</NORAD_CAT_ID><ELEMENT_SET_NO>999</ELEMENT_SET_NO><REV_AT_EPOCH>41943</REV_AT_EPOCH><BSTAR>.12440908E-2</BSTAR><MEAN_MOTION_DOT>.3723E-4</MEAN_MOTION_DOT><MEAN_MOTION_DDOT>0</MEAN_MOTION_DDOT></tleParameters></data></segment></body></omm>
<omm id="CCSDS_OMM_VERS" version="2.0">
<header><CREATION_DATE/><ORIGINATOR/></header><body><segment><metadata><OBJECT_NAME>ORBCOMM FM14</OBJECT_NAME><OBJECT_ID>1998-046G</OBJECT_ID><CENTER_NAME>EARTH</CENTER_NAME><REF_FRAME>TEME</REF_FRAME><TIME_SYSTEM>UTC</TIME_SYSTEM><MEAN_ELEMENT_THEORY>SGP4</MEAN_ELEMENT_THEORY></metadata><data><meanElements><EPOCH>2025-09-30T15:09:37.566720</EPOCH><MEAN_MOTION>14.39227808</MEAN_MOTION><ECCENTRICITY>.00031921</ECCENTRICITY><INCLINATION>44.9959</INCLINATION><RA_OF_ASC_NODE>35.3917</RA_OF_ASC_NODE><ARG_OF_PERICENTER>136.5734</ARG_OF_PERICENTER><MEAN_ANOMALY>223.5366</MEAN_ANOMALY></meanElements><tleParameters><EPHEMERIS_TYPE>0</EPHEMERIS_TYPE><CLASSIFICATION_TYPE>U</CLASSIFICATION_TYPE><NORAD_CAT_ID>25419</NORAD_CAT_ID><ELEMENT_SET_NO>999</ELEMENT_SET_NO><REV_AT_EPOCH>41940</REV_AT_EPOCH><BSTAR>.12477845E-2</BSTAR><MEAN_MOTION_DOT>.3764E-4</MEAN_MOTION_DOT><MEAN_MOTION_DDOT>0</MEAN_MOTION_DDOT></tleParameters></data></segment></body></omm>
<omm id="CCSDS_OMM_VERS" version="2.0">
<header><CREATION_DATE/><ORIGINATOR/></header><body><segment><metadata><OBJECT_NAME>ORBCOMM FM13</OBJECT_NAME><OBJECT_ID>1998-046H</OBJECT_ID><CENTER_NAME>EARTH</CENTER_NAME><REF_FRAME>TEME</REF_FRAME><TIME_SYSTEM>UTC</TIME_SYSTEM><MEAN_ELEMENT_THEORY>SGP4</MEAN_ELEMENT_THEORY></metadata><data><meanElements><EPOCH>2025-09-30T15:07:53.032224</EPOCH><MEAN_MOTION>14.37922125</MEAN_MOTION><ECCENTRICITY>.00048148</ECCENTRICITY><INCLINATION>44.9975</INCLINATION><RA_OF_ASC_NODE>44.4167</RA_OF_ASC_NODE><ARG_OF_PERICENTER>105.0482</ARG_OF_PERICENTER><MEAN_ANOMALY>255.0899</MEAN_ANOMALY></meanElements><tleParameters><EPHEMERIS_TYPE>0</EPHEMERIS_TYPE><CLASSIFICATION_TYPE>U</CLASSIFICATION_TYPE><NORAD_CAT_ID>25420</NORAD_CAT_ID><ELEMENT_SET_NO>999</ELEMENT_SET_NO><REV_AT_EPOCH>41841</REV_AT_EPOCH><BSTAR>.10608882E-2</BSTAR><MEAN_MOTION_DOT>.3093E-4</MEAN_MOTION_DOT><MEAN_MOTION_DDOT>0</MEAN_MOTION_DDOT></tleParameters></data></segment></body></omm>
<omm id="CCSDS_OMM_VERS" version="2.0">
<header><CREATION_DATE/><ORIGINATOR/></header><body><segment><metadata><OBJECT_NAME>ORBCOMM FM21</OBJECT_NAME><OBJECT_ID>1998-053A</OBJECT_ID><CENTER_NAME>EARTH</CENTER_NAME><REF_FRAME>TEME</REF_FRAME><TIME_SYSTEM>UTC</TIME_SYSTEM><MEAN_ELEMENT_THEORY>SGP4</MEAN_ELEMENT_THEORY></metadata><data><meanElements><EPOCH>2025-09-30T15:52:42.891456</EPOCH><MEAN_MOTION>14.37559236</MEAN_MOTION><ECCENTRICITY>.00020959</ECCENTRICITY><INCLINATION>45.0066</INCLINATION><RA_OF_ASC_NODE>129.9338</RA_OF_ASC_NODE><ARG_OF_PERICENTER>37.3686</ARG_OF_PERICENTER><MEAN_ANOMALY>322.7307</MEAN_ANOMALY></meanElements><tleParameters><EPHEMERIS_TYPE>0</EPHEMERIS_TYPE><CLASSIFICATION_TYPE>U</CLASSIFICATION_TYPE><NORAD_CAT_ID>25475</NORAD_CAT_ID><ELEMENT_SET_NO>999</ELEMENT_SET_NO><REV_AT_EPOCH>41242</REV_AT_EPOCH><BSTAR>.78807234E-3</BSTAR><MEAN_MOTION_DOT>.2243E-4</MEAN_MOTION_DOT><MEAN_MOTION_DDOT>0</MEAN_MOTION_DDOT></tleParameters></data></segment></body></omm>
<omm id="CCSDS_OMM_VERS" version="2.0">
<header><CREATION_DATE/><ORIGINATOR/></header><body><segment><metadata><OBJECT_NAME>ORBCOMM FM22</OBJECT_NAME><OBJECT_ID>1998-053B</OBJECT_ID><CENTER_NAME>EARTH</CENTER_NAME><REF_FRAME>TEME</REF_FRAME><TIME_SYSTEM>UTC</TIME_SYSTEM><MEAN_ELEMENT_THEORY>SGP4</MEAN_ELEMENT_THEORY></metadata><data><meanElements><EPOCH>2025-09-30T14:53:32.843328</EPOCH><MEAN_MOTION>14.38660664</MEAN_MOTION><ECCENTRICITY>.00037431</ECCENTRICITY><INCLINATION>45.0058</INCLINATION><RA_OF_ASC_NODE>124.1118</RA_OF_ASC_NODE><ARG_OF_PERICENTER>39.9808</ARG_OF_PERICENTER><MEAN_ANOMALY>320.1316</MEAN_ANOMALY></meanElements><tleParameters><EPHEMERIS_TYPE>0</EPHEMERIS_TYPE><CLASSIFICATION_TYPE>U</CLASSIFICATION_TYPE><NORAD_CAT_ID>25476</NORAD_CAT_ID><ELEMENT_SET_NO>999</ELEMENT_SET_NO><REV_AT_EPOCH>41245</REV_AT_EPOCH><BSTAR>.97555772E-3</BSTAR><MEAN_MOTION_DOT>.2877E-4</MEAN_MOTION_DOT><MEAN_MOTION_DDOT>0</MEAN_MOTION_DDOT></tleParameters></data></segment></body></omm>
<omm id="CCSDS_OMM_VERS" version="2.0">
<header><CREATION_DATE/><ORIGINATOR/></header><body><segment><metadata><OBJECT_NAME>ORBCOMM FM23</OBJECT_NAME><OBJECT_ID>1998-053C</OBJECT_ID><CENTER_NAME>EARTH</CENTER_NAME><REF_FRAME>TEME</REF_FRAME><TIME_SYSTEM>UTC</TIME_SYSTEM><MEAN_ELEMENT_THEORY>SGP4</MEAN_ELEMENT_THEORY></metadata><data><meanElements><EPOCH>2025-09-30T15:33:23.462208</EPOCH><MEAN_MOTION>14.37768320</MEAN_MOTION><ECCENTRICITY>.00030809</ECCENTRICITY><INCLINATION>45.0066</INCLINATION><RA_OF_ASC_NODE>131.9644</RA_OF_ASC_NODE><ARG_OF_PERICENTER>32.0428</ARG_OF_PERICENTER><MEAN_ANOMALY>328.0608</MEAN_ANOMALY></meanElements><tleParameters><EPHEMERIS_TYPE>0</EPHEMERIS_TYPE><CLASSIFICATION_TYPE>U</CLASSIFICATION_TYPE><NORAD_CAT_ID>25477</NORAD_CAT_ID><ELEMENT_SET_NO>999</ELEMENT_SET_NO><REV_AT_EPOCH>41257</REV_AT_EPOCH><BSTAR>.8948981E-3</BSTAR><MEAN_MOTION_DOT>.2578E-4</MEAN_MOTION_DOT><MEAN_MOTION_DDOT>0</MEAN_MOTION_DDOT></tleParameters></data></segment></body></omm>

</ndm>
